{
  "type": "FeatureCollection",
  "features": [
    {
      "type": "Feature",
      "properties": {
        "norad_id": 52912,
        "name": "GAOFEN-12 03",
        "group": "resource",
        "lat": 20.14810172004825,
        "lon": -117.41420438544482,
        "alt_km": 629.3810701479151,
        "timestamp": "2025-12-24T09:46:30.653330+00:00",
        "meta_object_name": "GAOFEN-12 03",
        "meta_object_id": "2022-069A",
        "meta_epoch": "2025-12-24T04:48:52.221888",
        "meta_mean_motion": 14.79637652,
        "meta_eccentricity": 0.0001881,
        "meta_inclination": 97.848,
        "meta_ra_of_asc_node": 245.2847,
        "meta_arg_of_pericenter": 49.7028,
        "meta_mean_anomaly": 310.4348,
        "meta_ephemeris_type": 0,
        "meta_classification_type": "U",
        "meta_norad_cat_id": 52912,
        "meta_element_set_no": 999,
        "meta_rev_at_epoch": 18873,
        "meta_bstar": 0.00025816,
        "meta_mean_motion_dot": 1.885e-05,
        "meta_mean_motion_ddot": 0,
        "tle_line1": "1 52912U 22069A   25358.20060442  .00001885  00000+0  25816-3 0  9995",
        "tle_line2": "2 52912  97.8480 245.2847 0001881  49.7028 310.4348 14.79637652188737"
      },
      "geometry": {
        "type": "Point",
        "coordinates": [
          -117.41420438544482,
          20.14810172004825
        ]
      }
    },
    {
      "type": "Feature",
      "properties": {
        "norad_id": 54754,
        "name": "SWOT",
        "group": "resource",
        "lat": -77.4862143076448,
        "lon": 173.26834924381293,
        "alt_km": 900.6699052604718,
        "timestamp": "2025-12-24T09:46:30.653340+00:00",
        "meta_object_name": "SWOT",
        "meta_object_id": "2022-173A",
        "meta_epoch": "2025-12-24T03:21:11.085696",
        "meta_mean_motion": 14.00168514,
        "meta_eccentricity": 3.96e-05,
        "meta_inclination": 77.6109,
        "meta_ra_of_asc_node": 271.6015,
        "meta_arg_of_pericenter": 82.8142,
        "meta_mean_anomaly": 277.3055,
        "meta_ephemeris_type": 0,
        "meta_classification_type": "U",
        "meta_norad_cat_id": 54754,
        "meta_element_set_no": 999,
        "meta_rev_at_epoch": 15465,
        "meta_bstar": 5.7679e-05,
        "meta_mean_motion_dot": 8.3e-07,
        "meta_mean_motion_ddot": 0,
        "tle_line1": "1 54754U 22173A   25358.13971164  .00000083  00000+0  57679-4 0  9993",
        "tle_line2": "2 54754  77.6109 271.6015 0000396  82.8142 277.3055 14.00168514154652"
      },
      "geometry": {
        "type": "Point",
        "coordinates": [
          173.26834924381293,
          -77.4862143076448
        ]
      }
    },
    {
      "type": "Feature",
      "properties": {
        "norad_id": 57654,
        "name": "GAOFEN-12 04",
        "group": "resource",
        "lat": -14.06124753623301,
        "lon": 91.99153514806282,
        "alt_km": 635.1913100263318,
        "timestamp": "2025-12-24T09:46:30.653351+00:00",
        "meta_object_name": "GAOFEN-12 04",
        "meta_object_id": "2023-123A",
        "meta_epoch": "2025-12-24T04:01:55.974144",
        "meta_mean_motion": 14.79731577,
        "meta_eccentricity": 0.0001206,
        "meta_inclination": 97.9128,
        "meta_ra_of_asc_node": 273.7522,
        "meta_arg_of_pericenter": 79.0173,
        "meta_mean_anomaly": 281.1174,
        "meta_ephemeris_type": 0,
        "meta_classification_type": "U",
        "meta_norad_cat_id": 57654,
        "meta_element_set_no": 999,
        "meta_rev_at_epoch": 12674,
        "meta_bstar": 0.00018524,
        "meta_mean_motion_dot": 1.341e-05,
        "meta_mean_motion_ddot": 0,
        "tle_line1": "1 57654U 23123A   25358.16800896  .00001341  00000+0  18524-3 0  9990",
        "tle_line2": "2 57654  97.9128 273.7522 0001206  79.0173 281.1174 14.79731577126744"
      },
      "geometry": {
        "type": "Point",
        "coordinates": [
          91.99153514806282,
          -14.06124753623301
        ]
      }
    },
    {
      "type": "Feature",
      "properties": {
        "norad_id": 59065,
        "name": "PARS 1",
        "group": "resource",
        "lat": -73.53166723605476,
        "lon": -4.07727158164771,
        "alt_km": 452.7388730087878,
        "timestamp": "2025-12-24T09:46:30.653362+00:00",
        "meta_object_name": "PARS 1",
        "meta_object_id": "2024-039Q",
        "meta_epoch": "2025-12-24T03:52:06.180960",
        "meta_mean_motion": 15.41226375,
        "meta_eccentricity": 0.0011682,
        "meta_inclination": 97.4653,
        "meta_ra_of_asc_node": 329.3383,
        "meta_arg_of_pericenter": 37.3402,
        "meta_mean_anomaly": 322.8654,
        "meta_ephemeris_type": 0,
        "meta_classification_type": "U",
        "meta_norad_cat_id": 59065,
        "meta_element_set_no": 999,
        "meta_rev_at_epoch": 10164,
        "meta_bstar": 0.00030555,
        "meta_mean_motion_dot": 0.00012641,
        "meta_mean_motion_ddot": 0,
        "tle_line1": "1 59065U 24039Q   25358.16118265  .00012641  00000+0  30555-3 0  9990",
        "tle_line2": "2 59065  97.4653 329.3383 0011682  37.3402 322.8654 15.41226375101647"
      },
      "geometry": {
        "type": "Point",
        "coordinates": [
          -4.07727158164771,
          -73.53166723605476
        ]
      }
    },
    {
      "type": "Feature",
      "properties": {
        "norad_id": 59371,
        "name": "RESURS-P 4",
        "group": "resource",
        "lat": 49.83883658163153,
        "lon": -64.18495347195554,
        "alt_km": 464.2906481506734,
        "timestamp": "2025-12-24T09:46:30.653373+00:00",
        "meta_object_name": "RESURS-P 4",
        "meta_object_id": "2024-061A",
        "meta_epoch": "2025-12-24T04:51:13.746816",
        "meta_mean_motion": 15.32185933,
        "meta_eccentricity": 8.23e-05,
        "meta_inclination": 97.2565,
        "meta_ra_of_asc_node": 304.2984,
        "meta_arg_of_pericenter": 75.4994,
        "meta_mean_anomaly": 284.6339,
        "meta_ephemeris_type": 0,
        "meta_classification_type": "U",
        "meta_norad_cat_id": 59371,
        "meta_element_set_no": 999,
        "meta_rev_at_epoch": 9696,
        "meta_bstar": 0.00015084,
        "meta_mean_motion_dot": 4.611e-05,
        "meta_mean_motion_ddot": 0,
        "tle_line1": "1 59371U 24061A   25358.20224244  .00004611  00000+0  15084-3 0  9993",
        "tle_line2": "2 59371  97.2565 304.2984 0000823  75.4994 284.6339 15.32185933 96967"
      },
      "geometry": {
        "type": "Point",
        "coordinates": [
          -64.18495347195554,
          49.83883658163153
        ]
      }
    },
    {
      "type": "Feature",
      "properties": {
        "norad_id": 59625,
        "name": "LEGION 1",
        "group": "resource",
        "lat": -18.247885151291268,
        "lon": 75.44241181261373,
        "alt_km": 520.7713065223716,
        "timestamp": "2025-12-24T09:46:30.653383+00:00",
        "meta_object_name": "LEGION 1",
        "meta_object_id": "2024-081A",
        "meta_epoch": "2025-12-24T03:31:19.779744",
        "meta_mean_motion": 15.16588049,
        "meta_eccentricity": 0.0003605,
        "meta_inclination": 97.5198,
        "meta_ra_of_asc_node": 72.6879,
        "meta_arg_of_pericenter": 264.0593,
        "meta_mean_anomaly": 96.0229,
        "meta_ephemeris_type": 0,
        "meta_classification_type": "U",
        "meta_norad_cat_id": 59625,
        "meta_element_set_no": 999,
        "meta_rev_at_epoch": 9100,
        "meta_bstar": 0.00028358,
        "meta_mean_motion_dot": 5.472e-05,
        "meta_mean_motion_ddot": 0,
        "tle_line1": "1 59625U 24081A   25358.14675671  .00005472  00000+0  28358-3 0  9998",
        "tle_line2": "2 59625  97.5198  72.6879 0003605 264.0593  96.0229 15.16588049 91005"
      },
      "geometry": {
        "type": "Point",
        "coordinates": [
          75.44241181261373,
          -18.247885151291268
        ]
      }
    },
    {
      "type": "Feature",
      "properties": {
        "norad_id": 59626,
        "name": "LEGION 2",
        "group": "resource",
        "lat": 17.81858950189406,
        "lon": -104.53232419458288,
        "alt_km": 516.0183828320705,
        "timestamp": "2025-12-24T09:46:30.653394+00:00",
        "meta_object_name": "LEGION 2",
        "meta_object_id": "2024-081B",
        "meta_epoch": "2025-12-24T02:43:44.561280",
        "meta_mean_motion": 15.16599796,
        "meta_eccentricity": 0.0005737,
        "meta_inclination": 97.52,
        "meta_ra_of_asc_node": 72.7431,
        "meta_arg_of_pericenter": 244.3388,
        "meta_mean_anomaly": 115.7253,
        "meta_ephemeris_type": 0,
        "meta_classification_type": "U",
        "meta_norad_cat_id": 59626,
        "meta_element_set_no": 999,
        "meta_rev_at_epoch": 9100,
        "meta_bstar": 0.00027216,
        "meta_mean_motion_dot": 5.251e-05,
        "meta_mean_motion_ddot": 0,
        "tle_line1": "1 59626U 24081B   25358.11371020  .00005251  00000+0  27216-3 0  9994",
        "tle_line2": "2 59626  97.5200  72.7431 0005737 244.3388 115.7253 15.16599796 91003"
      },
      "geometry": {
        "type": "Point",
        "coordinates": [
          -104.53232419458288,
          17.81858950189406
        ]
      }
    }
  ]
}